[{"OBJECT_NAME":"IRIDIUM 160","OBJECT_ID":"2018-061A","EPOCH":"2026-03-09T22:03:46.499616","MEAN_MOTION":14.34217171,"ECCENTRICITY":0.00022327,"INCLINATION":86.3914,"RA_OF_ASC_NODE":98.3199,"ARG_OF_PERICENTER":91.5582,"MEAN_ANOMALY":268.587,"EPHEMERIS_TYPE":0,"CLASSIFICATION_TYPE":"U","NORAD_CAT_ID":43569,"ELEMENT_SET_NO":999,"REV_AT_EPOCH":39914,"BSTAR":-1.4041758e-5,"MEAN_MOTION_DOT":-2.0e-7,"MEAN_MOTION_DDOT":0},{"OBJECT_NAME":"CZ-6A DEB","OBJECT_ID":"2024-140RJ","EPOCH":"2026-03-09T13:07:36.270912","MEAN_MOTION":14.44919722,"ECCENTRICITY":0.00710485,"INCLINATION":88.9215,"RA_OF_ASC_NODE":278.0584,"ARG_OF_PERICENTER":230.5723,"MEAN_ANOMALY":128.9179,"EPHEMERIS_TYPE":0,"CLASSIFICATION_TYPE":"U","NORAD_CAT_ID":61164,"ELEMENT_SET_NO":999,"REV_AT_EPOCH":8154,"BSTAR":0.00020345028,"MEAN_MOTION_DOT":7.46e-6,"MEAN_MOTION_DDOT":0}]
